{"type":"FeatureCollection","name":"land_calcofi","source":"https://raw.githubusercontent.com/nvkelso/natural-earth-vector/master/geojson/ne_50m_land.geojson","attribution":"Natural Earth 1:50m land (public domain)","processing":"clipped to -135.0..-105.0 lon x 19.0..49.0 lat, Douglas-Peucker 0.012 deg, scripts/build_land.py","features":[{"type":"Feature","properties":{},"geometry":{"type":"Polygon","coordinates":[[[-123.7773,49.0],[-123.7523,48.9512],[-123.6266,48.824],[-123.497,48.5821],[-123.4729,48.6023],[-123.458,48.6744],[-123.4155,48.6982],[-123.2838,48.4552],[-123.3106,48.411],[-123.3345,48.4065],[-123.4459,48.4272],[-123.5731,48.3228],[-123.9169,48.3866],[-124.6894,48.5973],[-125.1207,48.7608],[-125.1357,48.8224],[-124.8831,49.0],[-125.3627,48.9982],[-125.4895,48.9338],[-125.6157,49.0],[-123.7773,49.0]]]}},{"type":"Feature","properties":{},"geometry":{"type":"Polygon","coordinates":[[[-120.3066,34.0249],[-120.4416,34.0329],[-120.3677,34.0733],[-120.3066,34.0249]]]}},{"type":"Feature","properties":{},"geometry":{"type":"Polygon","coordinates":[[[-119.438,33.2172],[-119.5437,33.2246],[-119.5752,33.2783],[-119.4788,33.2746],[-119.438,33.2172]]]}},{"type":"Feature","properties":{},"geometry":{"type":"Polygon","coordinates":[[[-122.8531,47.2047],[-122.8768,47.1861],[-122.9119,47.2543],[-122.8851,47.2747],[-122.8531,47.2047]]]}},{"type":"Feature","properties":{},"geometry":{"type":"Polygon","coordinates":[[[-122.3941,47.3953],[-122.3987,47.3725],[-122.4371,47.3548],[-122.4686,47.3902],[-122.5099,47.358],[-122.4865,47.4888],[-122.4686,47.49],[-122.3941,47.3953]]]}},{"type":"Feature","properties":{},"geometry":{"type":"Polygon","coordinates":[[[-122.4973,47.5946],[-122.5026,47.5754],[-122.5759,47.6195],[-122.5498,47.704],[-122.5079,47.6827],[-122.4973,47.5946]]]}},{"type":"Feature","properties":{},"geometry":{"type":"Polygon","coordinates":[[[-122.7821,48.6727],[-122.7688,48.651],[-122.8376,48.6266],[-122.903,48.6647],[-122.8925,48.5945],[-122.9856,48.6267],[-123.0028,48.6522],[-122.8977,48.7104],[-122.7821,48.6727]]]}},{"type":"Feature","properties":{},"geometry":{"type":"Polygon","coordinates":[[[-122.8209,48.4313],[-122.89,48.4347],[-122.9216,48.4569],[-122.9323,48.4848],[-122.9122,48.538],[-122.8689,48.5486],[-122.8619,48.5019],[-122.8146,48.4523],[-122.8209,48.4313]]]}},{"type":"Feature","properties":{},"geometry":{"type":"Polygon","coordinates":[[[-123.0131,48.5009],[-122.9868,48.468],[-123.1399,48.508],[-123.1622,48.6064],[-123.1142,48.6133],[-123.0242,48.5385],[-123.0131,48.5009]]]}},{"type":"Feature","properties":{},"geometry":{"type":"Polygon","coordinates":[[[-122.5728,48.1566],[-122.5238,48.0254],[-122.5028,48.0801],[-122.3667,47.9854],[-122.3666,47.9388],[-122.3832,47.9232],[-122.4114,47.9177],[-122.4923,47.9813],[-122.5575,47.9925],[-122.6032,48.055],[-122.6227,48.1514],[-122.6904,48.1739],[-122.7487,48.239],[-122.6286,48.3842],[-122.5355,48.3212],[-122.5424,48.294],[-122.697,48.2287],[-122.5976,48.2004],[-122.5728,48.1566]]]}},{"type":"Feature","properties":{},"geometry":{"type":"Polygon","coordinates":[[[-123.3724,48.8861],[-123.3848,48.8752],[-123.541,48.9459],[-123.602,49.0],[-123.5491,49.0],[-123.3779,48.9083],[-123.3724,48.8861]]]}},{"type":"Feature","properties":{},"geometry":{"type":"Polygon","coordinates":[[[-123.4354,48.7544],[-123.4772,48.7288],[-123.5175,48.7501],[-123.5823,48.9258],[-123.4679,48.8674],[-123.4875,48.8457],[-123.4228,48.7934],[-123.4068,48.7561],[-123.4354,48.7544]]]}},{"type":"Feature","properties":{},"geometry":{"type":"Polygon","coordinates":[[[-118.3504,32.8276],[-118.4086,32.8185],[-118.4732,32.8389],[-118.5902,33.0112],[-118.5571,33.0327],[-118.5075,32.9599],[-118.3504,32.8276]]]}},{"type":"Feature","properties":{},"geometry":{"type":"Polygon","coordinates":[[[-118.2428,28.9419],[-118.2855,28.9038],[-118.4001,29.1123],[-118.4014,29.1627],[-118.3678,29.1876],[-118.3123,29.1829],[-118.3121,29.1305],[-118.2474,29.0434],[-118.2428,28.9419]]]}},{"type":"Feature","properties":{},"geometry":{"type":"Polygon","coordinates":[[[-120.0436,33.9188],[-120.1139,33.9049],[-120.1671,33.9181],[-120.2519,34.0139],[-120.0718,34.0265],[-119.9839,33.9733],[-120.0436,33.9188]]]}},{"type":"Feature","properties":{},"geometry":{"type":"Polygon","coordinates":[[[-119.8824,34.0797],[-119.6789,34.0285],[-119.5691,34.053],[-119.5493,34.0282],[-119.5622,34.0066],[-119.8096,33.9678],[-119.8855,33.9949],[-119.9181,34.0678],[-119.8824,34.0797]]]}},{"type":"Feature","properties":{},"geometry":{"type":"Polygon","coordinates":[[[-118.3479,33.3857],[-118.2975,33.3121],[-118.4463,33.3171],[-118.492,33.4128],[-118.5594,33.432],[-118.5694,33.4642],[-118.5548,33.4771],[-118.3479,33.3857]]]}},{"type":"Feature","properties":{},"geometry":{"type":"Polygon","coordinates":[[[-106.5022,21.6108],[-106.5313,21.5285],[-106.607,21.5615],[-106.6342,21.6131],[-106.6394,21.6979],[-106.5974,21.7122],[-106.5364,21.6764],[-106.5022,21.6108]]]}},{"type":"Feature","properties":{},"geometry":{"type":"Polygon","coordinates":[[[-110.5674,25.0035],[-110.5389,24.8916],[-110.5902,24.9081],[-110.6574,24.9688],[-110.7034,25.0466],[-110.6993,25.0814],[-110.5952,25.0421],[-110.5674,25.0035]]]}},{"type":"Feature","properties":{},"geometry":{"type":"Polygon","coordinates":[[[-109.8051,24.1511],[-109.8268,24.1476],[-109.8779,24.2006],[-109.8903,24.3448],[-109.7938,24.1834],[-109.8051,24.1511]]]}},{"type":"Feature","properties":{},"geometry":{"type":"Polygon","coordinates":[[[-113.1556,29.0522],[-113.1628,29.0348],[-113.2647,29.0967],[-113.4963,29.3076],[-113.5806,29.4132],[-113.5872,29.573],[-113.508,29.5599],[-113.4159,29.4859],[-113.3758,29.4175],[-113.3738,29.3389],[-113.2021,29.3019],[-113.1556,29.0522]]]}},{"type":"Feature","properties":{},"geometry":{"type":"Polygon","coordinates":[[[-114.6941,31.7056],[-114.7272,31.7014],[-114.7892,31.7474],[-114.7846,31.7898],[-114.7091,31.7569],[-114.6941,31.7056]]]}},{"type":"Feature","properties":{},"geometry":{"type":"Polygon","coordinates":[[[-115.1706,28.0694],[-115.1843,28.0373],[-115.3529,28.104],[-115.2604,28.2206],[-115.274,28.3428],[-115.2335,28.3684],[-115.197,28.3279],[-115.1485,28.1721],[-115.1706,28.0694]]]}},{"type":"Feature","properties":{},"geometry":{"type":"Polygon","coordinates":[[[-111.6989,24.3936],[-111.7123,24.3464],[-112.0133,24.5334],[-111.9409,24.5511],[-111.8568,24.538],[-111.6989,24.3936]]]}},{"type":"Feature","properties":{},"geometry":{"type":"Polygon","coordinates":[[[-111.1003,26.0206],[-111.0944,25.9741],[-111.1353,25.9992],[-111.2247,25.8359],[-111.1829,26.0406],[-111.0909,26.0757],[-111.1003,26.0206]]]}},{"type":"Feature","properties":{},"geometry":{"type":"Polygon","coordinates":[[[-112.2031,29.0053],[-112.2784,28.7693],[-112.3553,28.7731],[-112.5141,28.8476],[-112.531,28.894],[-112.4698,29.1677],[-112.4235,29.2037],[-112.2851,29.2404],[-112.2031,29.0053]]]}},{"type":"Feature","properties":{},"geometry":{"type":"Polygon","coordinates":[[[-112.0573,24.5457],[-112.0773,24.5346],[-112.1629,24.6503],[-112.1755,24.7296],[-112.2105,24.7631],[-112.2968,24.7896],[-112.2223,24.9511],[-112.1594,25.2856],[-112.1317,25.2244],[-112.195,24.8411],[-112.1302,24.7296],[-112.1263,24.654],[-112.0573,24.5457]]]}},{"type":"Feature","properties":{},"geometry":{"type":"Polygon","coordinates":[[[-105.0,49.0],[-105.0,19.3865],[-105.1077,19.5622],[-105.2864,19.7065],[-105.4821,19.9761],[-105.5324,20.0754],[-105.5704,20.2278],[-105.6694,20.3856],[-105.6421,20.436],[-105.5426,20.4979],[-105.3771,20.5119],[-105.2602,20.5791],[-105.2523,20.6685],[-105.3271,20.753],[-105.4924,20.7766],[-105.5108,20.8087],[-105.4563,20.8438],[-105.2371,21.1192],[-105.2333,21.3804],[-105.2087,21.4908],[-105.4314,21.6183],[-105.5274,21.8185],[-105.6491,21.9881],[-105.6455,22.3269],[-105.7918,22.6275],[-105.9434,22.777],[-106.0217,22.8291],[-106.2346,23.0609],[-106.4022,23.1956],[-106.5665,23.4495],[-106.7288,23.6107],[-106.9355,23.8813],[-107.0849,24.0161],[-107.7649,24.4719],[-107.7266,24.4719],[-107.5272,24.3601],[-107.4937,24.3694],[-107.4889,24.424],[-107.5119,24.4892],[-107.5489,24.5048],[-107.602,24.4901],[-107.8167,24.539],[-107.9512,24.6149],[-108.0088,24.6936],[-108.0151,24.7834],[-108.2077,24.9748],[-108.2808,25.0815],[-108.1401,25.0184],[-108.0357,25.0354],[-108.0515,25.067],[-108.3737,25.1943],[-108.4663,25.2651],[-108.6964,25.3829],[-108.751,25.4242],[-108.7873,25.538],[-108.8436,25.5433],[-108.8932,25.5116],[-109.0288,25.4805],[-109.0635,25.5167],[-109.0685,25.5516],[-108.9728,25.5885],[-108.8849,25.696],[-108.8866,25.7334],[-109.0083,25.642],[-109.1965,25.5925],[-109.3043,25.6332],[-109.385,25.7271],[-109.4256,26.0326],[-109.2707,26.2431],[-109.1997,26.3052],[-109.1588,26.2584],[-109.1167,26.2527],[-109.1463,26.3057],[-109.216,26.3553],[-109.2763,26.5339],[-109.4829,26.7104],[-109.7548,26.7029],[-109.8284,26.7701],[-109.8909,26.8834],[-109.944,27.0793],[-110.2771,27.1622],[-110.4778,27.3227],[-110.5606,27.4501],[-110.6155,27.6539],[-110.5783,27.7957],[-110.5299,27.8642],[-110.759,27.9152],[-110.8486,27.9176],[-110.9208,27.8889],[-111.1214,27.967],[-111.2824,28.1152],[-111.4717,28.384],[-111.6801,28.4706],[-111.8324,28.6481],[-111.9408,28.8232],[-112.0449,28.8959],[-112.1618,29.0189],[-112.2235,29.2695],[-112.3014,29.3229],[-112.3782,29.3477],[-112.4146,29.5364],[-112.5729,29.7195],[-112.7384,29.9854],[-112.7592,30.1257],[-112.8248,30.3001],[-113.0577,30.651],[-113.1104,30.7933],[-113.087,30.9381],[-113.1186,31.0481],[-113.108,31.0773],[-113.0728,31.0609],[-113.0429,31.087],[-113.0467,31.1792],[-113.2314,31.256],[-113.4808,31.2936],[-113.6235,31.3459],[-113.633,31.4676],[-113.7594,31.5578],[-113.9478,31.6293],[-114.0027,31.5251],[-114.1493,31.5074],[-114.2641,31.5544],[-114.5487,31.7335],[-114.6976,31.7774],[-114.9336,31.9007],[-114.8395,31.7985],[-114.7899,31.6471],[-114.8481,31.5379],[-114.8819,31.1564],[-114.761,30.9587],[-114.7034,30.7652],[-114.6854,30.6212],[-114.6333,30.5069],[-114.6498,30.2381],[-114.6299,30.1563],[-114.5505,30.0223],[-114.4034,29.8965],[-114.3726,29.8302],[-114.1792,29.7343],[-114.0619,29.6095],[-113.7555,29.3675],[-113.5453,29.1022],[-113.5385,29.0234],[-113.4997,28.9267],[-113.3818,28.9467],[-113.3289,28.873],[-113.3207,28.8131],[-113.2589,28.8188],[-113.2056,28.7988],[-113.0937,28.5118],[-113.0336,28.4726],[-112.8709,28.4242],[-112.8685,28.292],[-112.7957,28.2071],[-112.8081,28.0922],[-112.7493,27.9949],[-112.7582,27.9006],[-112.734,27.826],[-112.5526,27.6575],[-112.3292,27.5234],[-112.2826,27.3475],[-112.1915,27.1867],[-112.004,27.0791],[-112.0091,26.9671],[-111.8832,26.8402],[-111.8626,26.6785],[-111.754,26.5727],[-111.7234,26.5644],[-111.6994,26.581],[-111.8168,26.7563],[-111.8218,26.8651],[-111.7953,26.8797],[-111.5697,26.7076],[-111.5459,26.5792],[-111.4702,26.5066],[-111.4645,26.4084],[-111.4185,26.35],[-111.4046,26.265],[-111.3321,26.1254],[-111.3304,25.9313],[-111.2916,25.7898],[-111.1496,25.5726],[-111.0344,25.527],[-111.0136,25.4203],[-110.8939,25.1442],[-110.7557,24.9946],[-110.6868,24.8677],[-110.6772,24.7885],[-110.729,24.6715],[-110.7345,24.5898],[-110.6593,24.3415],[-110.547,24.2142],[-110.4215,24.1834],[-110.3997,24.1651],[-110.4096,24.131],[-110.3674,24.1005],[-110.32,24.1395],[-110.2968,24.1949],[-110.3251,24.306],[-110.3038,24.3395],[-110.2629,24.3445],[-110.0228,24.1746],[-109.9825,24.1094],[-109.8113,23.939],[-109.776,23.8649],[-109.7105,23.8038],[-109.6766,23.6616],[-109.5096,23.5979],[-109.4209,23.4801],[-109.415,23.4056],[-109.4581,23.2147],[-109.4957,23.1598],[-109.6305,23.0787],[-109.7284,22.9818],[-109.823,22.9222],[-109.9234,22.8859],[-110.0062,22.894],[-110.086,23.0055],[-110.1806,23.3415],[-110.3627,23.6049],[-110.63,23.7373],[-110.7649,23.877],[-110.8956,23.9703],[-111.0362,24.1053],[-111.4193,24.329],[-111.5782,24.443],[-111.6829,24.5558],[-111.8025,24.5425],[-111.8482,24.6701],[-112.0726,24.84],[-112.119,24.934],[-112.1285,25.0431],[-112.0558,25.4882],[-112.0699,25.5729],[-112.1146,25.6304],[-112.1198,25.7655],[-112.1738,25.9126],[-112.3772,26.2139],[-112.6584,26.3167],[-113.0208,26.5833],[-113.1192,26.7165],[-113.1558,26.9462],[-113.2058,26.857],[-113.2723,26.791],[-113.4259,26.7958],[-113.5985,26.7213],[-113.7013,26.7914],[-113.841,26.9665],[-113.9965,26.9877],[-114.1101,27.106],[-114.2019,27.1435],[-114.3334,27.158],[-114.4453,27.2182],[-114.4983,27.3762],[-114.5399,27.4311],[-114.9935,27.736],[-115.0332,27.7989],[-115.0365,27.8418],[-114.8235,27.8299],[-114.57,27.7839],[-114.4485,27.7969],[-114.3006,27.873],[-114.2891,27.8386],[-114.3022,27.7757],[-114.1372,27.6714],[-114.0693,27.6757],[-114.1351,27.7266],[-114.1754,27.8306],[-114.1584,27.9197],[-114.2526,27.908],[-114.2659,27.9345],[-114.1853,28.0133],[-114.0927,28.2213],[-114.0485,28.4262],[-114.1455,28.6054],[-114.3092,28.7299],[-114.9373,29.3516],[-114.9935,29.3844],[-115.1664,29.4272],[-115.6738,29.7564],[-115.7487,29.9357],[-115.8083,29.9602],[-115.7896,30.0842],[-115.8156,30.3036],[-115.8582,30.3598],[-115.9958,30.4145],[-116.0622,30.8041],[-116.2963,30.9705],[-116.3334,31.2028],[-116.4585,31.361],[-116.6622,31.5649],[-116.6685,31.6986],[-116.7221,31.7346],[-116.6239,31.758],[-116.6208,31.8511],[-116.848,31.9974],[-116.9137,32.1985],[-117.0631,32.3436],[-117.1305,32.5397],[-117.1374,32.6492],[-117.1837,32.6879],[-117.2435,32.664],[-117.2707,32.8062],[-117.263,32.9389],[-117.3188,33.1],[-117.4674,33.2955],[-117.7885,33.5385],[-117.9521,33.6196],[-118.0805,33.7222],[-118.1619,33.7507],[-118.2644,33.7586],[-118.2942,33.7123],[-118.4104,33.7439],[-118.393,33.8583],[-118.5062,34.0174],[-118.5988,34.035],[-118.832,34.0245],[-119.1437,34.112],[-119.2358,34.1641],[-119.2677,34.2574],[-119.6061,34.418],[-119.7132,34.3997],[-119.8533,34.412],[-120.053,34.4693],[-120.4812,34.4716],[-120.5598,34.5439],[-120.6447,34.58],[-120.6249,34.812],[-120.663,34.9493],[-120.6336,35.0765],[-120.6591,35.1224],[-120.707,35.1577],[-120.8574,35.2097],[-120.8849,35.275],[-120.8603,35.3654],[-120.8996,35.4251],[-121.0229,35.4808],[-121.1379,35.6071],[-121.2838,35.6763],[-121.3438,35.7922],[-121.4337,35.8639],[-121.465,35.9274],[-121.6644,36.1541],[-121.8774,36.3311],[-121.9102,36.4329],[-121.9187,36.5724],[-121.79,36.7323],[-121.8074,36.8512],[-121.8807,36.9389],[-122.1642,36.991],[-122.3949,37.2075],[-122.4084,37.3731],[-122.4992,37.5426],[-122.5142,37.772],[-122.4456,37.798],[-122.3841,37.7885],[-122.3697,37.6559],[-122.2976,37.5918],[-122.2287,37.5639],[-122.166,37.5017],[-122.0705,37.4783],[-122.1241,37.5438],[-122.2222,37.732],[-122.296,37.7903],[-122.3334,37.8966],[-122.3854,37.9606],[-122.3143,38.0073],[-122.217,38.0406],[-122.0867,38.0496],[-121.7168,38.0341],[-121.6381,38.0613],[-121.5253,38.0559],[-121.6257,38.0839],[-121.8808,38.075],[-122.0315,38.1235],[-122.1538,38.0655],[-122.3934,38.1448],[-122.4839,38.1088],[-122.4949,37.9536],[-122.4669,37.8382],[-122.5213,37.8264],[-122.5842,37.8741],[-122.7604,37.9457],[-122.932,38.0555],[-122.9988,37.9886],[-122.9682,38.097],[-122.9776,38.2273],[-122.8768,38.1233],[-122.9082,38.1966],[-122.9865,38.2771],[-123.0462,38.3051],[-123.1211,38.4493],[-123.2897,38.5358],[-123.4248,38.6756],[-123.7011,38.9073],[-123.7195,39.111],[-123.8203,39.3684],[-123.7778,39.5149],[-123.7835,39.6187],[-123.8329,39.7755],[-123.8845,39.8608],[-124.1085,40.0945],[-124.324,40.252],[-124.3565,40.3711],[-124.3717,40.4912],[-124.2837,40.7105],[-124.2539,40.7403],[-124.2506,40.7039],[-124.22,40.6965],[-124.1902,40.7717],[-124.2225,40.775],[-124.2192,40.7907],[-124.1331,40.9698],[-124.14,41.1559],[-124.0685,41.3842],[-124.0719,41.4595],[-124.1632,41.719],[-124.2446,41.7879],[-124.2087,41.8886],[-124.2117,41.9846],[-124.3553,42.1229],[-124.4205,42.381],[-124.4062,42.5837],[-124.5396,42.8129],[-124.3466,43.3417],[-124.1969,43.4233],[-124.2332,43.4364],[-124.288,43.4097],[-124.1844,43.6516],[-124.1487,43.6917],[-124.0992,44.3338],[-124.0475,44.4255],[-124.0654,44.5201],[-124.0445,44.6482],[-124.0592,44.7777],[-123.9486,45.4008],[-123.9631,45.4761],[-123.9293,45.577],[-123.9612,45.843],[-123.9471,46.1406],[-123.9893,46.2194],[-123.9629,46.2254],[-123.9117,46.1822],[-123.6736,46.1826],[-123.5216,46.2227],[-123.4664,46.2094],[-123.4023,46.155],[-123.2206,46.1536],[-123.4047,46.221],[-123.4648,46.2711],[-123.6503,46.2677],[-123.6884,46.2999],[-123.8957,46.2678],[-123.9598,46.3007],[-124.0728,46.2794],[-124.0451,46.3729],[-124.0443,46.6051],[-124.0164,46.5214],[-123.9461,46.4326],[-123.8892,46.66],[-123.9577,46.7087],[-124.0717,46.7448],[-124.1125,46.8627],[-123.8429,46.9632],[-123.986,46.9845],[-124.0422,47.0297],[-124.1117,47.0352],[-124.1393,46.9547],[-124.1988,47.2085],[-124.3093,47.4046],[-124.376,47.6586],[-124.4601,47.7842],[-124.6211,47.9042],[-124.6631,47.9741],[-124.7017,48.1517],[-124.68,48.2859],[-124.71,48.3804],[-124.6326,48.375],[-123.9758,48.1685],[-123.2944,48.1195],[-123.1619,48.1545],[-123.1244,48.1509],[-123.0242,48.0816],[-122.9739,48.0733],[-122.8609,48.09],[-122.7786,48.1376],[-122.7397,48.0132],[-122.6566,47.8812],[-122.7784,47.7384],[-122.8018,47.7354],[-122.8054,47.7836],[-122.8214,47.7932],[-123.0506,47.552],[-123.1311,47.4377],[-123.1391,47.3861],[-123.1363,47.3558],[-123.1042,47.3484],[-122.9222,47.4077],[-123.0668,47.3997],[-123.0486,47.4793],[-122.9825,47.5594],[-122.7571,47.7005],[-122.7179,47.7621],[-122.6082,47.8355],[-122.5879,47.856],[-122.5857,47.9279],[-122.5328,47.9197],[-122.5108,47.8157],[-122.5239,47.7693],[-122.6302,47.6928],[-122.6136,47.6156],[-122.6755,47.6124],[-122.5858,47.5284],[-122.5574,47.4632],[-122.5779,47.2932],[-122.6039,47.2746],[-122.6486,47.2814],[-122.7077,47.3164],[-122.7678,47.2184],[-122.8285,47.3366],[-122.9195,47.2896],[-122.9876,47.1726],[-123.0276,47.1389],[-122.812,47.146],[-122.702,47.1109],[-122.6042,47.167],[-122.5422,47.2756],[-122.4201,47.3121],[-122.3538,47.3716],[-122.3684,47.6039],[-122.4105,47.6526],[-122.3836,47.7165],[-122.4018,47.7843],[-122.3185,47.9331],[-122.242,48.0107],[-122.4158,48.1839],[-122.3948,48.0841],[-122.494,48.1305],[-122.5292,48.1993],[-122.5203,48.2291],[-122.4034,48.2692],[-122.4085,48.2939],[-122.5417,48.4109],[-122.6625,48.4464],[-122.6573,48.49],[-122.5427,48.488],[-122.4968,48.5056],[-122.5148,48.5552],[-122.5127,48.6694],[-122.5451,48.7623],[-122.5802,48.7796],[-122.653,48.7639],[-122.6859,48.7943],[-122.7963,49.0],[-123.0458,49.0],[-123.0633,48.9777],[-123.0899,49.0],[-105.0,49.0]]]}}]}